[{"OBJECT_NAME":"STARLINK-5794","OBJECT_ID":"2023-042W","EPOCH":"2026-03-09T00:23:42.562176","MEAN_MOTION":15.02534429,"ECCENTRICITY":6.895e-5,"INCLINATION":43.0014,"RA_OF_ASC_NODE":59.3729,"ARG_OF_PERICENTER":256.3296,"MEAN_ANOMALY":103.7469,"EPHEMERIS_TYPE":0,"CLASSIFICATION_TYPE":"U","NORAD_CAT_ID":56006,"ELEMENT_SET_NO":999,"REV_AT_EPOCH":16281,"BSTAR":-1.0557403e-5,"MEAN_MOTION_DOT":-3.46e-6,"MEAN_MOTION_DDOT":0},{"OBJECT_NAME":"KOMPSAT-7","OBJECT_ID":"2025-279A","EPOCH":"2026-03-09T20:54:17.078400","MEAN_MOTION":15.01421798,"ECCENTRICITY":0.00098953,"INCLINATION":97.6738,"RA_OF_ASC_NODE":18.4558,"ARG_OF_PERICENTER":343.5135,"MEAN_ANOMALY":16.5766,"EPHEMERIS_TYPE":0,"CLASSIFICATION_TYPE":"U","NORAD_CAT_ID":66820,"ELEMENT_SET_NO":999,"REV_AT_EPOCH":1472,"BSTAR":0.00031598708,"MEAN_MOTION_DOT":4.022e-5,"MEAN_MOTION_DDOT":0}]
