STARLINK-5794           
1 56006U 23042W   26068.01646484 -.00000346  00000+0 -10557-4 0  9999
2 56006  43.0014  59.3729 0000689 256.3296 103.7469 15.02534429162815
KOMPSAT-7               
1 66820U 25279A   26068.87103100  .00004022  00000+0  31599-3 0  9996
2 66820  97.6738  18.4558 0009895 343.5135  16.5766 15.01421798 14723
